{
"type": "FeatureCollection",
"name": "dataset",
"crs": { "type": "name", "properties": { "name": "urn:ogc:def:crs:OGC:1.3:CRS84" } },
"features": [
{ "type": "Feature", "properties": { "POINT_ID": 47862690, "Latitude": 47.15023795, "Longitude": 16.13421178, "Survey_Date": "06-07-18", "pH_H2O": 4.81, "pH_CaCl2": 4.1, "EC": 8.73, "OC": 12.4, "CaCO3": 3.0, "P": "< LOD", "N": 1.1, "K": 101.9, "Extraction_Time": "2026-07-17T14:56:15.807696", "Pipeline_Version": "1.0.0", "Sentinel_Product": "sentinel-2-l2a", "Source_Dataset": "Sentinel-2 L2A", "sentinel_ok": 1.0, "Sentinel_Tile_ID": "cached", "S2_PRODUCT_ID": "cached", "NDVI": 0.81669038534164429, "EVI": 0.49543792009353638, "SAVI": 0.45298480987548828, "MSAVI": 0.44430369138717651, "GNDVI": 0.7344585657119751, "NDMI": 0.36093711853027338, "NDWI": -0.7344585657119751, "BSI": -0.32419854402542109, "NDRE": 0.62330543994903564, "CIre": 3.5668613910675049, "Brightness": 0.1952128261327743, "ClayIndex": 2.1349775791168213, "CRS": "EPSG:32633", "sentinel1_ok": 1.0, "S1_PRODUCT_ID": "cached", "S1_ACQUISITION_DATE": "cached", "VV_mean": 24.580955505371094, "VH_mean": 21.478191375732425, "VV_VH_ratio": 1.1444611549377439, "RVI_mean": 1.3369405269622805, "DEM_Source": "cop-dem-glo-30", "dem_ok": 1.0, "elevation": 289.67483520507812, "slope": 11.028627395629885, "aspect": 133.46044921875, "ERA5_Time": "06-07-1", "weather_ok": 1.0, "temperature_mean": 20.469442367553711, "temperature_max": 27.467681884765625, "temperature_min": 12.633697509765623, "rainfall_total_mm": 230.08245849609369, "rainfall_mean_mm": 2.0543076992034912, "soil_moisture_mean": 0.3650542795658111, "soil_moisture_max": 0.4299468994140625, "soil_temperature_mean": 20.22953987121582, "solar_radiation_mean": 137.35081481933594, "wind_speed_mean": 1.6946209669113159, "wind_speed_max": 4.8685317039489746, "SoilGrids_Version": "v2.0", "soil_ok": 1.0, "phh2o": 6.1, "nitrogen": 6.69, "soc": 46.6, "clay": 24.9, "sand": 25.4, "silt": 49.8, "grid_bin": "47.2_16.1" }, "geometry": { "type": "Point", "coordinates": [ 16.13421178, 47.15023795 ] } },
{ "type": "Feature", "properties": { "POINT_ID": 47882704, "Latitude": 47.27427248, "Longitude": 16.17535859, "Survey_Date": "06-07-18", "pH_H2O": 4.93, "pH_CaCl2": 4.1, "EC": 5.06, "OC": 16.7, "CaCO3": 1.0, "P": "< LOD", "N": 1.3, "K": 51.2, "Extraction_Time": "2026-07-17T14:56:15.808245", "Pipeline_Version": "1.0.0", "Sentinel_Product": "sentinel-2-l2a", "Source_Dataset": "Sentinel-2 L2A", "sentinel_ok": 1.0, "Sentinel_Tile_ID": "cached", "S2_PRODUCT_ID": "cached", "NDVI": 0.71003788709640503, "EVI": 0.47314244508743281, "SAVI": 0.41459673643112183, "MSAVI": 0.39720457792282099, "GNDVI": 0.64729130268096924, "NDMI": 0.30548813939094538, "NDWI": -0.64729130268096924, "BSI": -0.25120607018470759, "NDRE": 0.52631545066833496, "CIre": 2.4301443099975586, "Brightness": 0.20009815692901611, "ClayIndex": 1.8599216938018801, "CRS": "EPSG:32633", "sentinel1_ok": 1.0, "S1_PRODUCT_ID": "cached", "S1_ACQUISITION_DATE": "cached", "VV_mean": 23.637245178222656, "VH_mean": 20.505962371826168, "VV_VH_ratio": 1.1527011394500732, "RVI_mean": 1.3316608667373655, "DEM_Source": "cop-dem-glo-30", "dem_ok": 1.0, "elevation": 368.76358032226562, "slope": 10.269299507141112, "aspect": 165.72128295898438, "ERA5_Time": "06-07-1", "weather_ok": 1.0, "temperature_mean": 20.438577651977539, "temperature_max": 27.541900634765625, "temperature_min": 12.248931884765623, "rainfall_total_mm": 209.16766357421875, "rainfall_mean_mm": 1.8675683736801147, "soil_moisture_mean": 0.35126319527626038, "soil_moisture_max": 0.42529296875, "soil_temperature_mean": 20.07255744934082, "solar_radiation_mean": 138.21244812011719, "wind_speed_mean": 1.8295825719833367, "wind_speed_max": 4.9710044860839844, "SoilGrids_Version": "v2.0", "soil_ok": 1.0, "phh2o": 5.1, "nitrogen": 7.7, "soc": 43.3, "clay": 25.4, "sand": 34.6, "silt": 40.0, "grid_bin": "47.3_16.2" }, "geometry": { "type": "Point", "coordinates": [ 16.17535859, 47.27427248 ] } },
{ "type": "Feature", "properties": { "POINT_ID": 47982688, "Latitude": 47.1232602, "Longitude": 16.28969291, "Survey_Date": "02-06-18", "pH_H2O": 4.85, "pH_CaCl2": 4.1, "EC": 12.53, "OC": 47.5, "CaCO3": 1.0, "P": "12.3", "N": 3.1, "K": 114.8, "Extraction_Time": "2026-07-17T14:56:15.808762", "Pipeline_Version": "1.0.0", "Sentinel_Product": "sentinel-2-l2a", "Source_Dataset": "Sentinel-2 L2A", "sentinel_ok": 1.0, "Sentinel_Tile_ID": "cached", "S2_PRODUCT_ID": "cached", "NDVI": 0.55524832010269165, "EVI": 0.50521981716156006, "SAVI": 0.3759305477142334, "MSAVI": 0.35724109411239618, "GNDVI": 0.50968480110168457, "NDMI": 0.20890580117702481, "NDWI": -0.50968480110168457, "BSI": -0.1592849791049957, "NDRE": 0.41921797394752502, "CIre": 1.5000371932983398, "Brightness": 0.23755583167076111, "ClayIndex": 1.5380536317825315, "CRS": "EPSG:32633", "sentinel1_ok": 1.0, "S1_PRODUCT_ID": "cached", "S1_ACQUISITION_DATE": "cached", "VV_mean": 23.581830978393555, "VH_mean": 20.814764022827148, "VV_VH_ratio": 1.1329376697540283, "RVI_mean": 1.4124798774719238, "DEM_Source": "cop-dem-glo-30", "dem_ok": 1.0, "elevation": 264.2178955078125, "slope": 5.2037315368652344, "aspect": 213.12776184082031, "ERA5_Time": "02-06-1", "weather_ok": 1.0, "temperature_mean": 20.011478424072266, "temperature_max": 28.400909423828125, "temperature_min": 11.041534423828123, "rainfall_total_mm": 235.15182495117188, "rainfall_mean_mm": 2.0995697975158691, "soil_moisture_mean": 0.3772418200969696, "soil_moisture_max": 0.42999267578125, "soil_temperature_mean": 19.95649528503418, "solar_radiation_mean": 130.58889770507812, "wind_speed_mean": 2.0622348785400391, "wind_speed_max": 5.4035329818725586, "SoilGrids_Version": "v2.0", "soil_ok": 1.0, "phh2o": 6.0, "nitrogen": 6.77, "soc": 39.2, "clay": 27.9, "sand": 25.7, "silt": 46.4, "grid_bin": "47.1_16.3" }, "geometry": { "type": "Point", "coordinates": [ 16.28969291, 47.1232602 ] } },
{ "type": "Feature", "properties": { "POINT_ID": 48022702, "Latitude": 47.24569335, "Longitude": 16.35750603, "Survey_Date": "06-07-18", "pH_H2O": 5.8, "pH_CaCl2": 5.5, "EC": 21.1, "OC": 28.1, "CaCO3": 3.0, "P": "< LOD", "N": 2.0, "K": 165.8, "Extraction_Time": "2026-07-17T14:56:15.809121", "Pipeline_Version": "1.0.0", "Sentinel_Product": "sentinel-2-l2a", "Source_Dataset": "Sentinel-2 L2A", "sentinel_ok": 1.0, "Sentinel_Tile_ID": "cached", "S2_PRODUCT_ID": "cached", "NDVI": 0.58224409818649292, "EVI": 0.36974936723709101, "SAVI": 0.3399316668510437, "MSAVI": 0.32854682207107538, "GNDVI": 0.59109371900558472, "NDMI": 0.16352362930774689, "NDWI": -0.59109371900558472, "BSI": -0.1208771914243698, "NDRE": 0.44350606203079218, "CIre": 2.439349889755249, "Brightness": 0.19493326544761649, "ClayIndex": 1.823717474937439, "CRS": "EPSG:32633", "sentinel1_ok": 1.0, "S1_PRODUCT_ID": "cached", "S1_ACQUISITION_DATE": "cached", "VV_mean": 23.172170639038089, "VH_mean": 19.532842636108398, "VV_VH_ratio": 1.1863183975219729, "RVI_mean": 1.184598445892334, "DEM_Source": "cop-dem-glo-30", "dem_ok": 1.0, "elevation": 307.01181030273438, "slope": 4.412938117980957, "aspect": 199.51676940917969, "ERA5_Time": "06-07-1", "weather_ok": 1.0, "temperature_mean": 20.881587982177731, "temperature_max": 27.977447509765625, "temperature_min": 11.856353759765623, "rainfall_total_mm": 198.81301879882807, "rainfall_mean_mm": 1.7751162052154541, "soil_moisture_mean": 0.31639045476913452, "soil_moisture_max": 0.41949462890625, "soil_temperature_mean": 20.752071380615234, "solar_radiation_mean": 136.79937744140625, "wind_speed_mean": 2.0601544380187988, "wind_speed_max": 5.5332355499267578, "SoilGrids_Version": "v2.0", "soil_ok": 1.0, "phh2o": 6.4, "nitrogen": 5.82, "soc": 35.7, "clay": 25.9, "sand": 28.3, "silt": 45.8, "grid_bin": "47.2_16.4" }, "geometry": { "type": "Point", "coordinates": [ 16.35750603, 47.24569335 ] } },
{ "type": "Feature", "properties": { "POINT_ID": 48062708, "Latitude": 47.29637182, "Longitude": 16.41678159, "Survey_Date": "05-07-18", "pH_H2O": 6.48, "pH_CaCl2": 6.1, "EC": 10.89, "OC": 19.4, "CaCO3": 2.0, "P": "< LOD", "N": 2.2, "K": 42.1, "Extraction_Time": "2026-07-17T14:56:17.619253", "Pipeline_Version": "1.0.0", "Sentinel_Product": "sentinel-2-l2a", "Source_Dataset": "Sentinel-2 L2A", "sentinel_ok": 1.0, "Sentinel_Tile_ID": "cached", "S2_PRODUCT_ID": "cached", "NDVI": 0.8052794337272644, "EVI": 0.49815195798873901, "SAVI": 0.45468088984489441, "MSAVI": 0.44067391753196711, "GNDVI": 0.72117382287979126, "NDMI": 0.34304490685462952, "NDWI": -0.72117382287979126, "BSI": -0.3019553124904632, "NDRE": 0.59124815464019775, "CIre": 2.9592125415802002, "Brightness": 0.1950286328792572, "ClayIndex": 2.112905740737915, "CRS": "EPSG:32633", "sentinel1_ok": 1.0, "S1_PRODUCT_ID": "cached", "S1_ACQUISITION_DATE": "cached", "VV_mean": 23.821687698364251, "VH_mean": 21.725124359130859, "VV_VH_ratio": 1.0965040922164917, "RVI_mean": 1.5544312000274658, "DEM_Source": "cop-dem-glo-30", "dem_ok": 1.0, "elevation": 324.07650756835938, "slope": 5.8296322822570801, "aspect": 192.68228149414065, "ERA5_Time": "05-07-1", "weather_ok": 1.0, "temperature_mean": 20.527217864990234, "temperature_max": 27.735260009765625, "temperature_min": 11.215728759765623, "rainfall_total_mm": 184.74124145507807, "rainfall_mean_mm": 1.6494753360748291, "soil_moisture_mean": 0.3508178293704986, "soil_moisture_max": 0.453399658203125, "soil_temperature_mean": 20.375362396240234, "solar_radiation_mean": 136.55827331542969, "wind_speed_mean": 2.113149881362915, "wind_speed_max": 5.4239749908447266, "SoilGrids_Version": "v2.0", "soil_ok": 1.0, "phh2o": 5.7, "nitrogen": 7.39, "soc": 43.9, "clay": 29.2, "sand": 30.5, "silt": 40.2, "grid_bin": "47.3_16.4" }, "geometry": { "type": "Point", "coordinates": [ 16.41678159, 47.29637182 ] } },
{ "type": "Feature", "properties": { "POINT_ID": 48122730, "Latitude": 47.48881664, "Longitude": 16.52059488, "Survey_Date": "18-06-18", "pH_H2O": 6.81, "pH_CaCl2": 6.3, "EC": 14.46, "OC": 18.0, "CaCO3": null, "P": "68", "N": 2.0, "K": 277.2, "Extraction_Time": "2026-07-17T14:56:17.619405", "Pipeline_Version": "1.0.0", "Sentinel_Product": "sentinel-2-l2a", "Source_Dataset": "Sentinel-2 L2A", "sentinel_ok": 1.0, "Sentinel_Tile_ID": "cached", "S2_PRODUCT_ID": "cached", "NDVI": 0.62300074100494385, "EVI": 0.4304362535476684, "SAVI": 0.39668160676956171, "MSAVI": 0.379046231508255, "GNDVI": 0.59864026308059692, "NDMI": 0.2217824310064315, "NDWI": -0.59864026308059692, "BSI": -0.15163116157054901, "NDRE": 0.4252809584140777, "CIre": 1.539520263671875, "Brightness": 0.21957685053348541, "ClayIndex": 1.5812742710113523, "CRS": "EPSG:32633", "sentinel1_ok": 1.0, "S1_PRODUCT_ID": "cached", "S1_ACQUISITION_DATE": "cached", "VV_mean": 23.154170989990234, "VH_mean": 20.251501083374023, "VV_VH_ratio": 1.1433310508728027, "RVI_mean": 1.3714838027954102, "DEM_Source": "cop-dem-glo-30", "dem_ok": 1.0, "elevation": 236.50152587890625, "slope": 1.3438156843185425, "aspect": 146.46072387695312, "ERA5_Time": "18-06-1", "weather_ok": 1.0, "temperature_mean": 19.662881851196289, "temperature_max": 28.529815673828125, "temperature_min": 11.844268798828123, "rainfall_total_mm": 203.029541015625, "rainfall_mean_mm": 1.8127638101577761, "soil_moisture_mean": 0.39672169089317322, "soil_moisture_max": 0.467529296875, "soil_temperature_mean": 19.67759895324707, "solar_radiation_mean": 129.99057006835938, "wind_speed_mean": 2.5973377227783203, "wind_speed_max": 6.1813015937805176, "SoilGrids_Version": "v2.0", "soil_ok": 1.0, "phh2o": 5.9565217391304364, "nitrogen": 6.8004347826086962, "soc": 42.06818181818182, "clay": 26.417391304347824, "sand": 35.38695652173913, "silt": 38.195652173913047, "grid_bin": "47.5_16.5" }, "geometry": { "type": "Point", "coordinates": [ 16.52059488, 47.48881664 ] } },
{ "type": "Feature", "properties": { "POINT_ID": 48202738, "Latitude": 47.5541021, "Longitude": 16.63555874, "Survey_Date": "18-06-18", "pH_H2O": 6.37, "pH_CaCl2": 5.8, "EC": 17.08, "OC": 12.5, "CaCO3": null, "P": "58.1", "N": 1.4, "K": 315.5, "Extraction_Time": "2026-07-17T14:56:17.619675", "Pipeline_Version": "1.0.0", "Sentinel_Product": "sentinel-2-l2a", "Source_Dataset": "Sentinel-2 L2A", "sentinel_ok": 1.0, "Sentinel_Tile_ID": "cached", "S2_PRODUCT_ID": "cached", "NDVI": 0.37178641557693481, "EVI": 0.2583849430084228, "SAVI": 0.25090032815933228, "MSAVI": 0.2327445298433303, "GNDVI": 0.46215912699699402, "NDMI": 0.036552164703607497, "NDWI": -0.46215912699699402, "BSI": 0.041619807481765698, "NDRE": 0.23647420108318329, "CIre": 0.69700956344604492, "Brightness": 0.2228036820888519, "ClayIndex": 1.5084397792816162, "CRS": "EPSG:32633", "sentinel1_ok": 1.0, "S1_PRODUCT_ID": "cached", "S1_ACQUISITION_DATE": "cached", "VV_mean": 21.975128173828125, "VH_mean": 19.512689590454102, "VV_VH_ratio": 1.1261967420578003, "RVI_mean": 1.4508912563323977, "DEM_Source": "cop-dem-glo-30", "dem_ok": 1.0, "elevation": 276.36642456054688, "slope": 1.1570638418197632, "aspect": 120.22518157958984, "ERA5_Time": "18-06-1", "weather_ok": 1.0, "temperature_mean": 20.317596435546875, "temperature_max": 29.291534423828125, "temperature_min": 12.529815673828123, "rainfall_total_mm": 203.54258728027344, "rainfall_mean_mm": 1.8173445463180544, "soil_moisture_mean": 0.32469940185546869, "soil_moisture_max": 0.405914306640625, "soil_temperature_mean": 20.219608306884769, "solar_radiation_mean": 128.12757873535156, "wind_speed_mean": 2.8755471706390381, "wind_speed_max": 6.433469295501709, "SoilGrids_Version": "v2.0", "soil_ok": 1.0, "phh2o": 6.6, "nitrogen": 6.4, "soc": 36.8, "clay": 26.6, "sand": 35.1, "silt": 38.2, "grid_bin": "47.6_16.6" }, "geometry": { "type": "Point", "coordinates": [ 16.63555874, 47.5541021 ] } },
{ "type": "Feature", "properties": { "POINT_ID": 48222780, "Latitude": 47.92869563, "Longitude": 16.71115772, "Survey_Date": "21-05-18", "pH_H2O": 7.98, "pH_CaCl2": 7.1, "EC": 23.55, "OC": 22.9, "CaCO3": 96.0, "P": "17.5", "N": 2.1, "K": 329.1, "Extraction_Time": "2026-07-17T14:56:17.620146", "Pipeline_Version": "1.0.0", "Sentinel_Product": "sentinel-2-l2a", "Source_Dataset": "Sentinel-2 L2A", "sentinel_ok": 1.0, "Sentinel_Tile_ID": "cached", "S2_PRODUCT_ID": "cached", "NDVI": 0.47455024719238281, "EVI": 0.32209044694900513, "SAVI": 0.31621435284614557, "MSAVI": 0.2963170707225799, "GNDVI": 0.51308274269104004, "NDMI": 0.060733672231435699, "NDWI": -0.51308274269104004, "BSI": 0.014941308647394101, "NDRE": 0.30769059062004089, "CIre": 0.93146431446075439, "Brightness": 0.2230084240436554, "ClayIndex": 1.4016315937042236, "CRS": "EPSG:32633", "sentinel1_ok": 1.0, "S1_PRODUCT_ID": "cached", "S1_ACQUISITION_DATE": "cached", "VV_mean": 22.177268981933601, "VH_mean": 19.33110237121582, "VV_VH_ratio": 1.1472325325012207, "RVI_mean": 1.3780748844146729, "DEM_Source": "cop-dem-glo-30", "dem_ok": 1.0, "elevation": 135.99868774414062, "slope": 3.2700328826904297, "aspect": 129.22923278808594, "ERA5_Time": "21-05-1", "weather_ok": 1.0, "temperature_mean": 18.174774169921875, "temperature_max": 26.420440673828125, "temperature_min": 10.595001220703123, "rainfall_total_mm": 165.71791076660156, "rainfall_mean_mm": 1.4796241521835327, "soil_moisture_mean": 0.17869213223457331, "soil_moisture_max": 0.318572998046875, "soil_temperature_mean": 18.29541015625, "solar_radiation_mean": 136.63975524902344, "wind_speed_mean": 2.4642665386199951, "wind_speed_max": 5.5918006896972656, "SoilGrids_Version": "v2.0", "soil_ok": 1.0, "phh2o": 7.0, "nitrogen": 5.58, "soc": 48.2, "clay": 22.5, "sand": 30.9, "silt": 46.6, "grid_bin": "47.9_16.7" }, "geometry": { "type": "Point", "coordinates": [ 16.71115772, 47.92869563 ] } },
{ "type": "Feature", "properties": { "POINT_ID": 48342774, "Latitude": 47.86505893, "Longitude": 16.8638522, "Survey_Date": "26-06-18", "pH_H2O": 8.09, "pH_CaCl2": 7.4, "EC": 22.61, "OC": 29.1, "CaCO3": 86.0, "P": "62.2", "N": 2.9, "K": 367.8, "Extraction_Time": "2026-07-17T14:56:17.760161", "Pipeline_Version": "1.0.0", "Sentinel_Product": "sentinel-2-l2a", "Source_Dataset": "Sentinel-2 L2A", "sentinel_ok": 1.0, "Sentinel_Tile_ID": "cached", "S2_PRODUCT_ID": "cached", "NDVI": 0.41158691048622131, "EVI": 0.1972133070230484, "SAVI": 0.2027215957641601, "MSAVI": 0.17245472967624659, "GNDVI": 0.47417116165161127, "NDMI": -0.1177128851413726, "NDWI": -0.47417116165161127, "BSI": 0.1462989598512649, "NDRE": 0.25574043393135071, "CIre": 0.70179140567779541, "Brightness": 0.1319264471530914, "ClayIndex": 1.3207186460494995, "CRS": "EPSG:32633", "sentinel1_ok": 1.0, "S1_PRODUCT_ID": "cached", "S1_ACQUISITION_DATE": "cached", "VV_mean": 21.98402214050293, "VH_mean": 19.098350524902344, "VV_VH_ratio": 1.1510953903198242, "RVI_mean": 1.3717178106307983, "DEM_Source": "cop-dem-glo-30", "dem_ok": 1.0, "elevation": 119.73215484619141, "slope": 0.62178683280944824, "aspect": 187.85646057128903, "ERA5_Time": "26-06-1", "weather_ok": 1.0, "temperature_mean": 21.36579704284668, "temperature_max": 30.582550048828125, "temperature_min": 13.281768798828123, "rainfall_total_mm": 135.273681640625, "rainfall_mean_mm": 1.2078007459640503, "soil_moisture_mean": 0.25639179348945618, "soil_moisture_max": 0.3711090087890625, "soil_temperature_mean": 21.377166748046875, "solar_radiation_mean": 135.46484375, "wind_speed_mean": 3.302445650100708, "wind_speed_max": 6.8111553192138672, "SoilGrids_Version": "v2.0", "soil_ok": 1.0, "phh2o": 7.2, "nitrogen": 4.95, "soc": 37.5, "clay": 24.6, "sand": 36.7, "silt": 38.7, "grid_bin": "47.9_16.9" }, "geometry": { "type": "Point", "coordinates": [ 16.8638522, 47.86505893 ] } },
{ "type": "Feature", "properties": { "POINT_ID": 48442784, "Latitude": 47.94615773, "Longitude": 17.00926007, "Survey_Date": "11-06-18", "pH_H2O": 7.84, "pH_CaCl2": 7.2, "EC": 14.94, "OC": 14.4, "CaCO3": 3.0, "P": "< LOD", "N": 1.6, "K": 146.2, "Extraction_Time": "2026-07-17T14:56:17.760365", "Pipeline_Version": "1.0.0", "Sentinel_Product": "sentinel-2-l2a", "Source_Dataset": "Sentinel-2 L2A", "sentinel_ok": 1.0, "Sentinel_Tile_ID": "cached", "S2_PRODUCT_ID": "cached", "NDVI": 0.70944613218307495, "EVI": 0.46892011165618891, "SAVI": 0.43799003958702087, "MSAVI": 0.42806133627891541, "GNDVI": 0.64673322439193726, "NDMI": 0.2145694494247436, "NDWI": -0.64673322439193726, "BSI": -0.16079087555408469, "NDRE": 0.50413960218429565, "CIre": 2.3373050689697266, "Brightness": 0.21592621505260459, "ClayIndex": 1.8013721704483032, "CRS": "EPSG:32633", "sentinel1_ok": 1.0, "S1_PRODUCT_ID": "cached", "S1_ACQUISITION_DATE": "cached", "VV_mean": 22.52113151550293, "VH_mean": 19.726343154907227, "VV_VH_ratio": 1.1416779756546021, "RVI_mean": 1.4035272598266602, "DEM_Source": "cop-dem-glo-30", "dem_ok": 1.0, "elevation": 158.02436828613281, "slope": 1.1725757122039795, "aspect": 162.79768371582031, "ERA5_Time": "11-06-1", "weather_ok": 1.0, "temperature_mean": 21.470361709594727, "temperature_max": 30.609893798828125, "temperature_min": 13.289642333984377, "rainfall_total_mm": 151.50241088867188, "rainfall_mean_mm": 1.3527001142501831, "soil_moisture_mean": 0.24617712199687949, "soil_moisture_max": 0.392578125, "soil_temperature_mean": 21.706008911132809, "solar_radiation_mean": 128.94960021972656, "wind_speed_mean": 3.2159144878387451, "wind_speed_max": 6.6091690063476562, "SoilGrids_Version": "v2.0", "soil_ok": 1.0, "phh2o": 7.3, "nitrogen": 5.45, "soc": 44.6, "clay": 29.1, "sand": 25.2, "silt": 45.7, "grid_bin": "47.9_17.0" }, "geometry": { "type": "Point", "coordinates": [ 17.00926007, 47.94615773 ] } }
]
}
